CCSDS_OEM_VERS = 1.0
CREATION_DATE  = 2017-05-11T11:00:00
ORIGINATOR     = GMAT USER

META_START
OBJECT_NAME          = MOPSSat_alt_35785_km_RAAN_0_057
OBJECT_ID            = SatId
CENTER_NAME          = Earth
REF_FRAME            = EME2000
TIME_SYSTEM          = UTC
START_TIME           = 2017-01-01T00:00:00.000
USEABLE_START_TIME   = 2017-01-01T00:00:00.000
USEABLE_STOP_TIME    = 2017-01-02T00:00:00.000
STOP_TIME            = 2017-01-02T00:00:00.000
INTERPOLATION        = Lagrange
INTERPOLATION_DEGREE = 7 
META_STOP


                                                                                   

2017-01-01T01:31:40.000   3.881303277350384e+04   1.646235200389325e+04   2.664670682111496e-03  -1.200637204529398e+00   2.830851498801906e+00  -2.679576994735524e-06
2017-01-01T01:31:50.000   3.880101607947554e+04   1.649065613779717e+04   2.637849606532261e-03  -1.202701494269817e+00   2.829975030313717e+00  -2.684632207944525e-06
2017-01-01T01:32:00.000   3.878897874564111e+04   1.651895149974063e+04   2.610978155953337e-03  -1.204765144237566e+00   2.829097056553456e+00  -2.689651947319273e-06
2017-01-01T01:32:10.000   3.877692077843479e+04   1.654723807459825e+04   2.584056685174094e-03  -1.206828153329393e+00   2.828217577990542e+00  -2.694636214462574e-06
2017-01-01T01:32:20.000   3.876484218432033e+04   1.657551584720918e+04   2.557085549019287e-03  -1.208890520439457e+00   2.827336595096549e+00  -2.699585010999236e-06
2017-01-01T01:32:30.000   3.875274296977765e+04   1.660378480240461e+04   2.530065102308629e-03  -1.210952244461339e+00   2.826454108344235e+00  -2.704498338592488e-06
2017-01-01T01:32:40.000   3.874062314129874e+04   1.663204492501818e+04   2.502995699847159e-03  -1.213013324288798e+00   2.825570118207236e+00  -2.709376198940946e-06
2017-01-01T01:32:50.000   3.872848270534502e+04   1.666029619998724e+04   2.475877696329582e-03  -1.215073758823154e+00   2.824684625156951e+00  -2.714218593812352e-06
2017-01-01T01:33:00.000   3.871632166837515e+04   1.668853861228515e+04   2.448711446402446e-03  -1.217133546968359e+00   2.823797629664587e+00  -2.719025525015274e-06
2017-01-01T01:33:10.000   3.870414003684549e+04   1.671677214692138e+04   2.421497304664213e-03  -1.219192687630996e+00   2.822909132201183e+00  -2.723796994404952e-06
2017-01-01T01:33:20.000   3.869193781718011e+04   1.674499678900847e+04   2.394235625598051e-03  -1.221251179725164e+00   2.822019133235413e+00  -2.728533003878017e-06
2017-01-01T01:33:30.000   3.867971501581499e+04   1.677321252366134e+04   2.366926763670238e-03  -1.223309022165138e+00   2.821127633236828e+00  -2.733233555371652e-06
2017-01-01T01:33:40.000   3.866747163920251e+04   1.680141933598718e+04   2.339571073339973e-03  -1.225366213864628e+00   2.820234632676176e+00  -2.737898650856681e-06
2017-01-01T01:33:50.000   3.865520769382249e+04   1.682961721105680e+04   2.312168909083401e-03  -1.227422753734692e+00   2.819340132026200e+00  -2.742528292345640e-06
2017-01-01T01:34:00.000   3.864292318619339e+04   1.685780613388281e+04   2.284720625418535e-03  -1.229478640682143e+00   2.818444131762468e+00  -2.747122481876793e-06
2017-01-01T01:34:10.000   3.863061812283564e+04   1.688598608950220e+04   2.257226576822772e-03  -1.231533873615573e+00   2.817546632360687e+00  -2.751681221531995e-06
2017-01-01T01:34:20.000   3.861829251043580e+04   1.691415706260598e+04   2.229687118099262e-03  -1.233588451418339e+00   2.816647634308681e+00  -2.756204513365232e-06
2017-01-01T01:34:30.000   3.860594635564802e+04   1.694231903798820e+04   2.202102603933109e-03  -1.235642372981315e+00   2.815747138091910e+00  -2.760692359486825e-06
2017-01-01T01:34:40.000   3.859357966516762e+04   1.697047200037893e+04   2.174473389055377e-03  -1.237695637190710e+00   2.814845144198844e+00  -2.765144762031773e-06
2017-01-01T01:34:50.000   3.858119244544698e+04   1.699861593509193e+04   2.146799827607630e-03  -1.239748242975300e+00   2.813941653100222e+00  -2.769561723277515e-06
2017-01-01T01:35:00.000   3.856878470297865e+04   1.702675082737851e+04   2.119082273774616e-03  -1.241800189259308e+00   2.813036665269721e+00  -2.773943245526038e-06
2017-01-01T01:35:10.000   3.855635644423174e+04   1.705487666257412e+04   2.091321081641256e-03  -1.243851474973094e+00   2.812130181179305e+00  -2.778289331133185e-06
2017-01-01T01:35:20.000   3.854390767580988e+04   1.708299342573284e+04   2.063516605545771e-03  -1.245902099026499e+00   2.811222201310752e+00  -2.782599982432789e-06
2017-01-01T01:35:30.000   3.853143840433473e+04   1.711110110189913e+04   2.035669199818530e-03  -1.247952060328658e+00   2.810312726147150e+00  -2.786875201798042e-06
2017-01-01T01:35:40.000   3.851894863644480e+04   1.713919967610731e+04   2.007779218779292e-03  -1.250001357787971e+00   2.809401756172820e+00  -2.791114991634638e-06
2017-01-01T01:35:50.000   3.850643837891825e+04   1.716728913311261e+04   1.979847017010699e-03  -1.252049990292482e+00   2.808489291882267e+00  -2.795319354357629e-06
2017-01-01T01:36:00.000   3.849390763850852e+04   1.719536945775394e+04   1.951872948991274e-03  -1.254097956736338e+00   2.807575333768200e+00  -2.799488292429296e-06
2017-01-01T01:36:10.000   3.848135642200887e+04   1.722344063481086e+04   1.923857369238753e-03  -1.256145256009355e+00   2.806659882326214e+00  -2.803621808342608e-06
2017-01-01T01:36:20.000   3.846878473596901e+04   1.725150264963704e+04   1.895800631677643e-03  -1.258191887043227e+00   2.805742938034162e+00  -2.807719904705082e-06
2017-01-01T01:36:30.000   3.845619258697826e+04   1.727955548752678e+04   1.867703090270494e-03  -1.260237848765312e+00   2.804824501372772e+00  -2.811782584153972e-06
2017-01-01T01:36:40.000   3.844357998160181e+04   1.730759913385829e+04   1.839565098875456e-03  -1.262283140109091e+00   2.803904572821017e+00  -2.815809849375354e-06
2017-01-01T01:36:50.000   3.843094692654131e+04   1.733563357372936e+04   1.811387011604765e-03  -1.264327759987593e+00   2.802983152867818e+00  -2.819801703052911e-06
2017-01-01T01:37:00.000   3.841829342851642e+04   1.736365879222823e+04   1.783169182559483e-03  -1.266371707313150e+00   2.802060242003416e+00  -2.823758147906206e-06
2017-01-01T01:37:10.000   3.840561949426374e+04   1.739167477443313e+04   1.754911965826931e-03  -1.268414980997365e+00   2.801135840719288e+00  -2.827679186690122e-06
2017-01-01T01:37:20.000   3.839292513066137e+04   1.741968150514414e+04   1.726615715757260e-03  -1.270457579931553e+00   2.800209949517222e+00  -2.831564822159513e-06
2017-01-01T01:37:30.000   3.838021034456215e+04   1.744767896924483e+04   1.698280786592134e-03  -1.272499503013122e+00   2.799282568897175e+00  -2.835415057117432e-06
2017-01-01T01:37:40.000   3.836747514285907e+04   1.747566715155969e+04   1.669907532609814e-03  -1.274540749135168e+00   2.798353699362025e+00  -2.839229894396525e-06
2017-01-01T01:37:50.000   3.835471953219789e+04   1.750364603748572e+04   1.641496307484686e-03  -1.276581317232544e+00   2.797423341396619e+00  -2.843009336942867e-06
2017-01-01T01:38:00.000   3.834194351926431e+04   1.753161561236078e+04   1.613047464926593e-03  -1.278621206235788e+00   2.796491495488718e+00  -2.846753387732624e-06
2017-01-01T01:38:10.000   3.832914711071936e+04   1.755957586160654e+04   1.584561358536517e-03  -1.280660415081552e+00   2.795558162124284e+00  -2.850462049790087e-06
2017-01-01T01:38:20.000   3.831633031336236e+04   1.758752677036507e+04   1.556038342169971e-03  -1.282698942686097e+00   2.794623341799365e+00  -2.854135326143482e-06
2017-01-01T01:38:30.000   3.830349313401071e+04   1.761546832376909e+04   1.527478769667975e-03  -1.284736787965000e+00   2.793687035011327e+00  -2.857773219855967e-06
2017-01-01T01:38:40.000   3.829063557949886e+04   1.764340050694136e+04   1.498882994854661e-03  -1.286773949833114e+00   2.792749242258779e+00  -2.861375734027693e-06
2017-01-01T01:38:50.000   3.827775765680450e+04   1.767132330472747e+04   1.470251371816692e-03  -1.288810427185074e+00   2.791809964050783e+00  -2.864942871752121e-06
2017-01-01T01:39:00.000   3.826485937287960e+04   1.769923670205629e+04   1.441584254527948e-03  -1.290846218921594e+00   2.790869200894514e+00  -2.868474636172269e-06
2017-01-01T01:39:10.000   3.825194073471786e+04   1.772714068379521e+04   1.412881996999061e-03  -1.292881323938900e+00   2.789926953300197e+00  -2.871971030457915e-06
2017-01-01T01:39:20.000   3.823900174905833e+04   1.775503523539029e+04   1.384144952618496e-03  -1.294915741175426e+00   2.788983221759490e+00  -2.875432057901458e-06
2017-01-01T01:39:30.000   3.822604242268245e+04   1.778292034222443e+04   1.355373474812058e-03  -1.296949469564997e+00   2.788038006767131e+00  -2.878857721821475e-06
2017-01-01T01:39:40.000   3.821306276233749e+04   1.781079598978306e+04   1.326567916872520e-03  -1.298982508048915e+00   2.787091308815370e+00  -2.882248025589625e-06
2017-01-01T01:39:50.000   3.820006277494149e+04   1.783866216320806e+04   1.297728632415316e-03  -1.301014855543428e+00   2.786143128408918e+00  -2.885602972556722e-06
2017-01-01T01:40:00.000   3.818704246741463e+04   1.786651884766608e+04   1.268855975002428e-03  -1.303046510966593e+00   2.785193466052630e+00  -2.888922566117103e-06
2017-01-01T01:40:10.000   3.817400184671660e+04   1.789436602826633e+04   1.239950298225671e-03  -1.305077473232273e+00   2.784242322254256e+00  -2.892206809691824e-06
2017-01-01T01:40:20.000   3.816094091983792e+04   1.792220369008353e+04   1.211011955685889e-03  -1.307107741251819e+00   2.783289697523784e+00  -2.895455706749742e-06
2017-01-01T01:40:30.000   3.814785969378550e+04   1.795003181818508e+04   1.182041300961604e-03  -1.309137313936048e+00   2.782335592372405e+00  -2.898669260792799e-06
2017-01-01T01:40:40.000   3.813475817557826e+04   1.797785039764117e+04   1.153038687598537e-03  -1.311166190195979e+00   2.781380007312182e+00  -2.901847475363215e-06
